C/2019 M3 (ATLAS),e,99.6619,155.0618,87.9358,5102,0.0000027,0.99952479,0.0000,12/31.4928/2018,2000,g 12.2,4.0
# From MPEC 2023-JA2
C/2019 M4 (TESS),h,09/09.3246/2019,65.6939,52.6408,260.3365,1.000158,9.191012,2000,5.0,4.0
# From MPEC 2023-C45
C/2019 N1 (ATLAS),e,82.5439,13.5061,193.3413,955.8008,0.0000334,0.99821830,0.0000,11/30.4752/2020,2000,g  7.5,4.0
# From MPEC 2023-CD8
A/2019 N2,e,89.3186,276.2272,347.0556,1105,0.0000268,0.99824526,0.0000,08/22.4028/2019,2000,g 12.5,2.0
# From MPEC 2022-A21
C/2019 NJ3 (Lemmon),h,10/22.1469/2020,99.3288,142.4928,246.8687,1.001354,4.362914,2000,9.0,4.0
# From MPC185656
C/2019 O2 (PANSTARRS),e,93.2971,48.2636,129.5716,58.78145,0.0021870,0.83531026,1.9114,08/27.0/2025,2000,g  5.0,4.0
# From MPC182878
C/2019 O3 (Palomar),h,03/08.2275/2021,89.7942,300.4790,60.0955,1.002514,8.820631,2000,3.5,4.0
# From MPEC 2021-P47
A/2019 O4,e,114.9958,354.9255,61.8174,33.22026,0.0051475,0.89037342,10.4179,08/27.0/2025,2000,g 15.5,2.0
# From MPEC 2024-EF7
C/2019 Q1 (Lemmon),h,07/22.2929/2020,155.7194,42.4687,56.2536,1.002457,5.002187,2000,8.5,4.0
# From MPC117072
A/2019 Q2,e,158.9654,188.1357,176.5144,58.82210,0.0021847,0.97857484,0.0000,07/23.8172/2019,2000,g 18.0,2.0
# From MPC117072
P/2019 S2 (PANSTARRS),e,10.4636,93.1796,216.9131,4.747627,0.0952772,0.20466750,227.1644,08/27.0/2025,2000,g 13.5,4.0
# From MPEC 2022-CN4
P/2019 S3 (PANSTARRS),e,8.6942,150.1401,213.0996,3.414163,0.1562348,0.47071289,342.1618,08/27.0/2025,2000,g 18.3,4.0
# From MPEC 2021-S45
C/2019 S4 (Lemmon),e,92.0923,63.1550,71.3696,249.8000,0.0002496,0.98623413,0.0000,04/09.5129/2020,2000,g 11.0,4.0
# From MPEC 2023-N01
A/2019 T1,e,120.8151,6.9273,90.9732,38.73843,0.0040878,0.88966488,6.8883,08/27.0/2025,2000,g 13.0,2.0
# From MPEC 2023-R20
C/2019 T2 (Lemmon),e,111.3634,155.6538,239.3817,3250,0.0000053,0.99918671,0.0000,04/22.4732/2021,2000,g  9.0,4.0
# From MPEC 2023-UR6
C/2019 T3 (ATLAS),e,121.8785,139.5455,112.4915,4879,0.0000029,0.99877990,0.0000,03/04.7958/2021,2000,g  6.8,4.0
# From MPC182878
C/2019 T4 (ATLAS),e,53.6244,199.8965,351.1073,880.3402,0.0000377,0.99518690,0.0000,06/08.6720/2022,2000,g  5.0,4.0
# From MPEC 2021-P47
P/2019 T5 (ATLAS),e,33.4913,247.6131,189.6289,8.008394,0.0434897,0.80976094,96.3496,08/27.0/2025,2000,g 15.0,4.0
# From MPEC 2021-P47
P/2019 T6 (PANSTARRS),e,18.6981,71.2488,329.0620,5.443165,0.0776116,0.62238134,164.3933,08/27.0/2025,2000,g 15.5,4.0
# From MPC118096
P/2019 U4 (PANSTARRS),e,11.6954,199.9995,181.0883,3.518592,0.1493312,0.47571794,323.4831,08/27.0/2025,2000,g 19.0,4.0
# From MPC185656
C/2019 U5 (PANSTARRS),h,03/29.4001/2023,113.5129,2.6091,181.4466,1.000096,3.624315,2000,4.5,4.0
# From MPEC 2022-H04
C/2019 U6 (Lemmon),e,60.9910,235.7417,329.4237,302.3986,0.0001874,0.99700421,0.0000,06/18.3372/2020,2000,g 10.0,4.0
# From MPEC 2022-N37
C/2019 V1 (Borisov),e,61.9483,83.1481,51.1964,2783,0.0000067,0.99888870,0.0000,07/17.6825/2020,2000,g 11.0,4.0
# From MPEC 2022-L66
P/2019 V2 (Groeller),e,11.8071,189.1327,335.6341,7.494702,0.0480366,0.33194750,85.2474,08/27.0/2025,2000,g 10.0,4.0
# From MPEC 2023-A50
P/2019 W1 (PANSTARRS),e,23.4658,35.3589,18.9017,4.548436,0.1016040,0.26717849,233.5625,08/27.0/2025,2000,g 12.9,4.0
# From MPEC 2021-P47
P/2019 X1 (Pruyne),e,10.2450,43.6760,37.0051,6.179828,0.0641563,0.30379995,142.7570,08/27.0/2025,2000,g 10.4,4.0
# From MPEC 2020-C98
P/2019 X2 (Pan-STARRS),e,15.8946,250.8294,213.5247,3.633857,0.1422828,0.50049677,296.6430,08/27.0/2025,2000,g 18.0,4.0
# From MPC119999
C/2019 Y1 (ATLAS),e,73.2646,31.4673,57.9175,88.27257,0.0011884,0.99063956,0.0000,03/17.2779/2020,2000,g 13.7,4.0
# From MPEC 2024-A43
C/2019 Y4 (ATLAS),e,44.9180,120.7984,177.4054,327.8498,0.0001660,0.99921514,0.0000,05/29.5249/2020,2000,g 11.8,6.0
# From MPEC 2020-L06
C/2019 Y4-A (ATLAS),h,05/29.5815/2020,45.3521,121.1666,177.2374,1.001358,0.255470,2000,11.6,6.0
# From MPEC 2025-CE3
C/2019 Y4-B (ATLAS),e,44.9992,120.8618,177.3645,1313,0.0000207,0.99980433,0.0000,05/29.5342/2020,2000,g 12.1,6.0
# From MPEC 2020-L06
C/2019 Y4-C (ATLAS),h,05/29.5359/2020,45.1360,120.8940,177.2701,1.002086,0.256541,2000,12.7,6.0
# From MPEC 2020-L06
C/2019 Y4-D (ATLAS),e,45.1896,121.2548,177.4137,67.19571,0.0017893,0.99619219,0.0000,05/29.6150/2020,2000,g 12.5,6.0
# From MPEC 2023-A50
C/2019 Y5 (PANSTARRS),e,82.7768,51.7703,303.6719,684.4807,0.0000550,0.99279025,0.0000,08/16.4548/2019,2000,g 11.0,4.0
# From MPEC 2023-A50
A/2020 A1,e,149.0315,119.0553,302.4007,25.45967,0.0076723,0.93431170,16.0886,08/27.0/2025,2000,g 18.0,2.0
# From MPEC 2022-YN2
C/2020 A2 (Iwamoto),e,120.4997,286.1836,68.0138,946.3972,0.0000339,0.99896919,0.0000,01/06.9600/2020,2000,g 13.5,4.0
# From MPEC 2023-A50
C/2020 A3 (ATLAS),e,146.6184,120.7975,268.2287,4458,0.0000033,0.99870939,0.0000,06/26.6537/2019,2000,g  8.0,4.0
# From MPEC 2022-P91
P/2020 A4 (PANSTARRS-Lemmon),e,25.0040,312.2747,144.9172,8.203617,0.0419465,0.65447055,88.1899,08/27.0/2025,2000,g 15.0,4.0
# From MPEC 2020-N08
A/2020 B1,e,18.5424,309.7926,154.8943,52.13769,0.0026180,0.96663775,5.4174,08/27.0/2025,2000,g 21.0,2.0
# From MPEC 2020-HN5
C/2020 B2 (Lemmon),e,55.7559,354.1660,143.6351,67.93187,0.0017603,0.95943108,3.5887,08/27.0/2025,2000,g 10.0,4.0
# From MPEC 2022-N37
C/2020 B3 (Rankin),e,20.7068,185.7360,324.9393,1067,0.0000283,0.99688212,0.0000,10/20.9127/2019,2000,g 13.0,4.0
# From MPEC 2023-KD6
P/2020 B4 (Sheppard),e,11.6027,185.9451,342.0619,7.973892,0.0437722,0.19296684,60.2515,08/27.0/2025,2000,g 10.5,4.0
# From MPEC 2025-OF9
C/2020 F2 (ATLAS),h,07/12.3611/2022,163.5897,250.3000,48.2321,1.002356,8.813452,2000,4.5,4.0
# From MPEC 2021-O56
C/2020 F3 (NEOWISE),e,129.1047,61.0720,37.3403,404.4541,0.0001212,0.99927491,0.0000,07/05.0361/2020,2000,g  7.5,5.2
# From MPEC 2024-UQ8
C/2020 F5 (MASTER),e,52.2351,350.5474,310.6079,163.7009,0.0004706,0.97357403,0.0000,03/16.0935/2021,2000,g  6.5,3.2
# From MPEC 2020-L06
C/2020 F6 (PANSTARRS),e,174.5844,207.8333,344.3196,338.6820,0.0001581,0.98967185,0.0000,04/10.1792/2020,2000,g 14.5,2.8
# From MPEC 2024-A43
C/2020 F7 (Lemmon),e,93.9857,321.8192,227.9883,574.4735,0.0000716,0.99071280,0.0000,11/13.9176/2021,2000,g  7.0,4.0
# From MPEC 2023-J29
C/2020 F8 (SWAN),h,05/25.6992/2020,110.5574,259.8039,68.1182,1.000059,0.433063,2000,10.0,4.0
# From MPEC 2020-L06
P/2020 G1 (Pimentel),e,18.5064,240.0961,207.6529,3.606339,0.1439144,0.86082283,285.8434,08/27.0/2025,2000,g 17.0,4.0
# From MPEC 2022-YB4
C/2020 H2 (Pruyne),e,124.7743,277.6715,26.5807,176.2591,0.0004212,0.99530005,0.0000,04/26.7631/2020,2000,g 14.0,3.2
# From MPEC 2020-HM1
C/2020 H3 (Wierzchos),p,06/05.7162/2020,62.5292,30.4456,2.300288,270.6227,2000,13.5,4.0
# From MPEC 2020-L06
C/2020 H4 (Leonard),e,84.4949,307.4421,117.5853,47.85443,0.0029773,0.98060917,0.0000,08/29.1711/2020,2000,g 15.0,3.2
# From MPC184409
C/2020 H5 (Robinson),e,70.2255,210.6124,326.2633,6179,0.0000020,0.99848934,0.0000,12/09.9610/2020,2000,g  5.0,4.0
# From MPEC 2024-JU4
C/2020 H6 (ATLAS),e,79.9910,213.6879,20.1864,1915,0.0000118,0.99754771,0.0000,09/29.5088/2021,2000,g  8.0,3.2
# From MPEC 2020-KB7
C/2020 H7 (Lemmon),e,135.9235,323.5194,82.6780,1405,0.0000187,0.99685380,0.0000,06/02.9510/2020,2000,g 11.0,4.0
# From MPEC 2021-N06
C/2020 H8 (PANSTARRS),e,99.7019,68.4370,128.8089,588.8508,0.0000690,0.99208233,0.0000,06/04.8259/2020,2000,g 10.5,4.0
# From MPEC 2022-ED3
A/2020 H9,e,137.8732,213.1105,312.6030,339.2723,0.0001577,0.99245063,0.0000,12/21.7457/2019,2000,g 18.0,2.0
# From MPEC 2023-HN7
C/2020 H11 (PANSTARRS-Lemmon),e,151.3719,303.0576,91.3600,16549,0.0000005,0.99953949,0.0000,09/12.3332/2020,2000,g  8.5,4.0
# From MPEC 2023-KD6
C/2020 J1 (SONEAR),e,142.3076,226.5818,341.5668,7769,0.0000014,0.99956950,0.0000,04/17.9580/2021,2000,g  8.5,3.2
# From MPC184409
C/2020 K1 (PANSTARRS),e,89.6705,94.3673,213.9688,2231,0.0000094,0.99862184,0.0000,05/08.6867/2023,2000,g  5.5,4.0
# From MPEC 2021-N06
C/2020 K2 (PANSTARRS),h,08/04.2135/2020,90.9870,288.4353,67.3056,1.000758,8.880271,2000,10.8,4.0
# From MPEC 2020-KF9
C/2020 K3 (Leonard),p,06/01.0032/2020,129.0152,64.4924,1.583069,28.3546,2000,14.5,4.0
# From MPEC 2020-L06
C/2020 K4 (PANSTARRS),e,125.5849,264.2750,308.7736,23.91857,0.0084256,0.92712140,16.8592,08/27.0/2025,2000,g 16.5,4.0
# From MPEC 2021-R75
C/2020 K5 (PANSTARRS),h,06/04.1212/2021,67.0676,86.1411,249.6436,1.000768,1.541047,2000,11.0,4.0
# From MPEC 2023-N01
C/2020 K6 (Rankin),h,09/14.6024/2021,103.6289,291.6013,44.2716,1.001971,5.865837,2000,8.0,4.0
# From MPEC 2023-A50
C/2020 K7 (PANSTARRS),e,32.0442,286.1346,358.0657,94.41928,0.0010743,0.93235043,2.2913,08/27.0/2025,2000,g  8.0,4.0
# From MPEC 2021-P47
C/2020 K8 (Catalina-ATLAS),h,09/15.7616/2020,31.3738,181.2762,260.1870,1.000327,0.471652,2000,15.0,3.2
# From MPEC 2021-BE3
P/2020 K9 (Lemmon-PANSTARRS),e,23.1890,166.3097,197.0887,4.207583,0.1141971,0.32005951,189.3401,08/27.0/2025,2000,g 12.5,4.0
# From MPEC 2023-C45
P/2020 M1 (PANSTARRS),e,8.5347,142.6176,72.4805,5.311425,0.0805170,0.47361840,166.9746,08/27.0/2025,2000,g 14.5,4.0
# From MPEC 2022-H30
C/2020 M3 (ATLAS),e,23.4697,71.1794,328.6762,27.31263,0.0069049,0.95328824,12.1962,08/27.0/2025,2000,g 14.5,4.0
# From MPEC 2023-N01
A/2020 M4,e,160.1006,348.6127,104.4681,14856,0.0000005,0.99960015,0.0000,11/22.6328/2020,2000,g 14.5,2.0
# From MPEC 2024-NE4
P/2020 MK4 (PANSTARRS),e,6.7812,0.6615,93.7411,6.224803,0.0634623,0.01526360,321.7863,08/27.0/2025,2000,g  8.0,4.0
# From MPEC 2023-FK0
C/2020 M5 (ATLAS),h,08/19.7284/2021,93.1702,352.0118,126.2439,1.000101,2.999885,2000,9.0,4.0
# From MPEC 2022-GA9
C/2020 N1 (PANSTARRS),h,03/13.2058/2021,29.7681,279.8543,186.8426,1.000892,1.317755,2000,12.5,4.0
# From MPEC 2021-P47
C/2020 N2 (ATLAS),e,161.0389,257.1782,331.1897,101.1367,0.0009690,0.98236874,0.0000,08/24.3087/2020,2000,g 16.0,3.2
# From MPEC 2024-JU4
C/2020 O2 (Amaral),e,71.7625,256.7907,10.1632,9331,0.0000011,0.99947959,0.0000,08/27.1805/2021,2000,g  8.0,3.2
# From MPEC 2023-C45
